[{"OBJECT_NAME":"STARLINK-31900","OBJECT_ID":"2024-106W","EPOCH":"2026-03-09T23:56:30.971616","MEAN_MOTION":15.27581578,"ECCENTRICITY":0.00015774,"INCLINATION":43.0024,"RA_OF_ASC_NODE":330.459,"ARG_OF_PERICENTER":255.2584,"MEAN_ANOMALY":104.8093,"EPHEMERIS_TYPE":0,"CLASSIFICATION_TYPE":"U","NORAD_CAT_ID":59942,"ELEMENT_SET_NO":999,"REV_AT_EPOCH":10057,"BSTAR":-5.682209e-5,"MEAN_MOTION_DOT":-1.826e-5,"MEAN_MOTION_DDOT":0},{"OBJECT_NAME":"HERMES-2","OBJECT_ID":"2025-052AK","EPOCH":"2026-03-09T22:17:00.130272","MEAN_MOTION":15.28021069,"ECCENTRICITY":0.00063399,"INCLINATION":97.4004,"RA_OF_ASC_NODE":324.4926,"ARG_OF_PERICENTER":99.416,"MEAN_ANOMALY":260.7796,"EPHEMERIS_TYPE":0,"CLASSIFICATION_TYPE":"U","NORAD_CAT_ID":63243,"ELEMENT_SET_NO":999,"REV_AT_EPOCH":5485,"BSTAR":0.00034839454,"MEAN_MOTION_DOT":9.456e-5,"MEAN_MOTION_DDOT":0}]
